IRIDIUM 39              
1 25042U 97069D   25223.36550510  .00000657  00000+0  16645-3 0  9995
2 25042  86.3955 187.4872 0019804 118.7894 241.5302 14.49273771457219
IRIDIUM 38              
1 25043U 97069E   25223.20560631  .00000437  00000+0  13754-3 0  9998
2 25043  86.3962 210.0119 0000467  48.4690 311.6548 14.38154344453863
IRIDIUM 42              
1 25077U 97077A   25223.27940771  .00000387  00000+0  12556-3 0  9991
2 25077  86.3956 216.2155 0001606  76.4669 283.6707 14.36386340449102
IRIDIUM 44              
1 25078U 97077B   25223.22413805  .00000446  00000+0  13470-3 0  9992
2 25078  86.3984 198.0300 0002131 138.5129 221.6232 14.40277800451628
IRIDIUM 45              
1 25104U 97082A   25223.17857970  .00028193  00000+0  95798-3 0  9999
2 25104  86.3584  21.1457 0114484 124.9567 236.2496 15.24162288460410
IRIDIUM 24              
1 25105U 97082B   25223.54258920  .00000478  00000+0  13927-3 0  9991
2 25105  86.3861  56.8051 0009304 252.1512 107.8674 14.42141058451447
IRIDIUM 51              
1 25262U 98018A   25222.95812875  .00039095  00000+0  77592-3 0  9999
2 25262  86.3812  28.6329 0081144  40.1060 320.6146 15.43235058455468
IRIDIUM 57              
1 25273U 98019B   25223.43332860  .00000343  00000+0  11162-3 0  9992
2 25273  86.3974 122.1241 0002073  85.5845 274.5589 14.35924170432924
